[{"OBJECT_NAME":"LEMUR-2-EMBRIONOVIS","OBJECT_ID":"2023-084AQ","EPOCH":"2026-03-09T22:21:55.974240","MEAN_MOTION":15.34650722,"ECCENTRICITY":0.00082915,"INCLINATION":97.613,"RA_OF_ASC_NODE":209.6192,"ARG_OF_PERICENTER":311.1934,"MEAN_ANOMALY":48.8593,"EPHEMERIS_TYPE":0,"CLASSIFICATION_TYPE":"U","NORAD_CAT_ID":56970,"ELEMENT_SET_NO":999,"REV_AT_EPOCH":15244,"BSTAR":0.00028007408,"MEAN_MOTION_DOT":9.331e-5,"MEAN_MOTION_DDOT":0},{"OBJECT_NAME":"STARLINK-35883","OBJECT_ID":"2025-283Q","EPOCH":"2026-03-09T06:53:22.921440","MEAN_MOTION":15.3018996,"ECCENTRICITY":0.00011582,"INCLINATION":53.1613,"RA_OF_ASC_NODE":25.954,"ARG_OF_PERICENTER":92.5073,"MEAN_ANOMALY":267.606,"EPHEMERIS_TYPE":0,"CLASSIFICATION_TYPE":"U","NORAD_CAT_ID":66892,"ELEMENT_SET_NO":999,"REV_AT_EPOCH":1578,"BSTAR":0.0014095104,"MEAN_MOTION_DOT":0.00041607,"MEAN_MOTION_DDOT":0}]
